UWE-3                   
1 39446U 13066AG  26068.86347791  .00006533  00000+0  57142-3 0  9997
2 39446  97.8589  24.3957 0048462 291.5404  68.0655 14.96183146662729
STARLINK-35125          
1 65534U 25200Q   26068.73788683  .00006107  00000+0  42714-3 0  9998
2 65534  97.6031 139.7774 0001430  44.2040 315.9301 15.05647389 29136
